IRS-P6 (RESOURCESAT-1)  
1 28051U 03046A   25334.17931881  .00000229  00000+0  90771-4 0  9994
2 28051  98.2197  15.1674 0063474 218.5728 233.6868 14.36065059151962
SHIYAN-1 (SY-1)         
1 28220U 04012A   25334.15386089  .00015445  00000+0  57345-3 0  9993
2 28220  97.8958  34.9537 0006554  11.8680 348.2711 15.27654707180646
AURA                    
1 28376U 04026A   25334.11908036  .00001310  00000+0  27751-3 0  9992
2 28376  98.3166 284.2887 0001059  89.0078 271.1243 14.60898658137148
IRS-P5 (CARTOSAT-1)     
1 28649U 05017A   25334.05981852  .00001663  00000+0  17638-3 0  9990
2 28649  97.5516   1.0356 0001961  56.4224 303.7182 14.90335851114154
SINAH 1                 
1 28893U 05043D   25334.10597463  .00000587  00000+0  12139-3 0  9992
2 28893  98.2597 102.6301 0014621 175.1923 184.9422 14.63939381 71394
EROS B                  
1 29079U 06014A   25334.15875938  .00145763  00000+0  15442-2 0  9994
2 29079  97.3484  90.1780 0002958 229.5527 130.5474 15.63645818 88833
RESURS-DK 1             
1 29228U 06021A   25333.93075228  .00003665  00000+0  21876-3 0  9990
2 29228  69.9317 134.9359 0007724 267.8424  92.1857 15.12044675 72441
ARIRANG-2 (KOMPSAT-2)   
1 29268U 06031A   25334.21366715  .00000444  00000+0  92290-4 0  9992
2 29268  97.8266 163.2969 0014245 350.3877  98.8671 14.64475830 32356
