{
  "type": "FeatureCollection",
  "features": [
    {
      "type": "Feature",
      "properties": {
        "OBJECT_NAME": "IRS-P6 (RESOURCESAT-1)",
        "OBJECT_ID": "2003-046A",
        "EPOCH": "2025-11-30T04:18:13.145184",
        "MEAN_MOTION": 14.36065059,
        "ECCENTRICITY": 0.0063474,
        "INCLINATION": 98.2197,
        "RA_OF_ASC_NODE": 15.1674,
        "ARG_OF_PERICENTER": 218.5728,
        "MEAN_ANOMALY": 233.6868,
        "EPHEMERIS_TYPE": 0,
        "CLASSIFICATION_TYPE": "U",
        "NORAD_CAT_ID": 28051,
        "ELEMENT_SET_NO": 999,
        "REV_AT_EPOCH": 15196,
        "BSTAR": 9.0771e-05,
        "MEAN_MOTION_DOT": 2.29e-06,
        "MEAN_MOTION_DDOT": 0,
        "norad_id": 28051,
        "name": "IRS-P6 (RESOURCESAT-1)",
        "group": "resource",
        "longitude_deg": NaN,
        "latitude_deg": NaN,
        "alt_km": NaN,
        "orbit_class": "HEO",
        "timestamp": "2025-11-30T09:33:02.500983+00:00"
      },
      "geometry": {
        "type": "Point",
        "coordinates": [
          NaN,
          NaN
        ]
      }
    },
    {
      "type": "Feature",
      "properties": {
        "OBJECT_NAME": "SHIYAN-1 (SY-1)",
        "OBJECT_ID": "2004-012A",
        "EPOCH": "2025-11-30T03:41:33.580896",
        "MEAN_MOTION": 15.27654707,
        "ECCENTRICITY": 0.0006554,
        "INCLINATION": 97.8958,
        "RA_OF_ASC_NODE": 34.9537,
        "ARG_OF_PERICENTER": 11.868,
        "MEAN_ANOMALY": 348.2711,
        "EPHEMERIS_TYPE": 0,
        "CLASSIFICATION_TYPE": "U",
        "NORAD_CAT_ID": 28220,
        "ELEMENT_SET_NO": 999,
        "REV_AT_EPOCH": 18064,
        "BSTAR": 0.00057345,
        "MEAN_MOTION_DOT": 0.00015445,
        "MEAN_MOTION_DDOT": 0,
        "norad_id": 28220,
        "name": "SHIYAN-1 (SY-1)",
        "group": "resource",
        "longitude_deg": NaN,
        "latitude_deg": NaN,
        "alt_km": NaN,
        "orbit_class": "HEO",
        "timestamp": "2025-11-30T09:33:02.501056+00:00"
      },
      "geometry": {
        "type": "Point",
        "coordinates": [
          NaN,
          NaN
        ]
      }
    },
    {
      "type": "Feature",
      "properties": {
        "OBJECT_NAME": "AURA",
        "OBJECT_ID": "2004-026A",
        "EPOCH": "2025-11-30T02:51:28.543104",
        "MEAN_MOTION": 14.60898658,
        "ECCENTRICITY": 0.0001059,
        "INCLINATION": 98.3166,
        "RA_OF_ASC_NODE": 284.2887,
        "ARG_OF_PERICENTER": 89.0078,
        "MEAN_ANOMALY": 271.1243,
        "EPHEMERIS_TYPE": 0,
        "CLASSIFICATION_TYPE": "U",
        "NORAD_CAT_ID": 28376,
        "ELEMENT_SET_NO": 999,
        "REV_AT_EPOCH": 13714,
        "BSTAR": 0.00027751,
        "MEAN_MOTION_DOT": 1.31e-05,
        "MEAN_MOTION_DDOT": 0,
        "norad_id": 28376,
        "name": "AURA",
        "group": "resource",
        "longitude_deg": NaN,
        "latitude_deg": NaN,
        "alt_km": NaN,
        "orbit_class": "HEO",
        "timestamp": "2025-11-30T09:33:02.501117+00:00"
      },
      "geometry": {
        "type": "Point",
        "coordinates": [
          NaN,
          NaN
        ]
      }
    },
    {
      "type": "Feature",
      "properties": {
        "OBJECT_NAME": "IRS-P5 (CARTOSAT-1)",
        "OBJECT_ID": "2005-017A",
        "EPOCH": "2025-11-30T01:26:08.320128",
        "MEAN_MOTION": 14.90335851,
        "ECCENTRICITY": 0.0001961,
        "INCLINATION": 97.5516,
        "RA_OF_ASC_NODE": 1.0356,
        "ARG_OF_PERICENTER": 56.4224,
        "MEAN_ANOMALY": 303.7182,
        "EPHEMERIS_TYPE": 0,
        "CLASSIFICATION_TYPE": "U",
        "NORAD_CAT_ID": 28649,
        "ELEMENT_SET_NO": 999,
        "REV_AT_EPOCH": 11415,
        "BSTAR": 0.00017638,
        "MEAN_MOTION_DOT": 1.663e-05,
        "MEAN_MOTION_DDOT": 0,
        "norad_id": 28649,
        "name": "IRS-P5 (CARTOSAT-1)",
        "group": "resource",
        "longitude_deg": NaN,
        "latitude_deg": NaN,
        "alt_km": NaN,
        "orbit_class": "HEO",
        "timestamp": "2025-11-30T09:33:02.501224+00:00"
      },
      "geometry": {
        "type": "Point",
        "coordinates": [
          NaN,
          NaN
        ]
      }
    },
    {
      "type": "Feature",
      "properties": {
        "OBJECT_NAME": "SINAH 1",
        "OBJECT_ID": "2005-043D",
        "EPOCH": "2025-11-30T02:32:36.208032",
        "MEAN_MOTION": 14.63939381,
        "ECCENTRICITY": 0.0014621,
        "INCLINATION": 98.2597,
        "RA_OF_ASC_NODE": 102.6301,
        "ARG_OF_PERICENTER": 175.1923,
        "MEAN_ANOMALY": 184.9422,
        "EPHEMERIS_TYPE": 0,
        "CLASSIFICATION_TYPE": "U",
        "NORAD_CAT_ID": 28893,
        "ELEMENT_SET_NO": 999,
        "REV_AT_EPOCH": 7139,
        "BSTAR": 0.00012139,
        "MEAN_MOTION_DOT": 5.87e-06,
        "MEAN_MOTION_DDOT": 0,
        "norad_id": 28893,
        "name": "SINAH 1",
        "group": "resource",
        "longitude_deg": NaN,
        "latitude_deg": NaN,
        "alt_km": NaN,
        "orbit_class": "HEO",
        "timestamp": "2025-11-30T09:33:02.501293+00:00"
      },
      "geometry": {
        "type": "Point",
        "coordinates": [
          NaN,
          NaN
        ]
      }
    },
    {
      "type": "Feature",
      "properties": {
        "OBJECT_NAME": "EROS B",
        "OBJECT_ID": "2006-014A",
        "EPOCH": "2025-11-30T03:48:36.810432",
        "MEAN_MOTION": 15.63645818,
        "ECCENTRICITY": 0.0002958,
        "INCLINATION": 97.3484,
        "RA_OF_ASC_NODE": 90.178,
        "ARG_OF_PERICENTER": 229.5527,
        "MEAN_ANOMALY": 130.5474,
        "EPHEMERIS_TYPE": 0,
        "CLASSIFICATION_TYPE": "U",
        "NORAD_CAT_ID": 29079,
        "ELEMENT_SET_NO": 999,
        "REV_AT_EPOCH": 8883,
        "BSTAR": 0.0015442,
        "MEAN_MOTION_DOT": 0.00145763,
        "MEAN_MOTION_DDOT": 0,
        "norad_id": 29079,
        "name": "EROS B",
        "group": "resource",
        "longitude_deg": NaN,
        "latitude_deg": NaN,
        "alt_km": NaN,
        "orbit_class": "HEO",
        "timestamp": "2025-11-30T09:33:02.501379+00:00"
      },
      "geometry": {
        "type": "Point",
        "coordinates": [
          NaN,
          NaN
        ]
      }
    },
    {
      "type": "Feature",
      "properties": {
        "OBJECT_NAME": "RESURS-DK 1",
        "OBJECT_ID": "2006-021A",
        "EPOCH": "2025-11-29T22:20:16.996992",
        "MEAN_MOTION": 15.12044675,
        "ECCENTRICITY": 0.0007724,
        "INCLINATION": 69.9317,
        "RA_OF_ASC_NODE": 134.9359,
        "ARG_OF_PERICENTER": 267.8424,
        "MEAN_ANOMALY": 92.1857,
        "EPHEMERIS_TYPE": 0,
        "CLASSIFICATION_TYPE": "U",
        "NORAD_CAT_ID": 29228,
        "ELEMENT_SET_NO": 999,
        "REV_AT_EPOCH": 7244,
        "BSTAR": 0.00021876,
        "MEAN_MOTION_DOT": 3.665e-05,
        "MEAN_MOTION_DDOT": 0,
        "norad_id": 29228,
        "name": "RESURS-DK 1",
        "group": "resource",
        "longitude_deg": NaN,
        "latitude_deg": NaN,
        "alt_km": NaN,
        "orbit_class": "HEO",
        "timestamp": "2025-11-30T09:33:02.501386+00:00"
      },
      "geometry": {
        "type": "Point",
        "coordinates": [
          NaN,
          NaN
        ]
      }
    },
    {
      "type": "Feature",
      "properties": {
        "OBJECT_NAME": "ARIRANG-2 (KOMPSAT-2)",
        "OBJECT_ID": "2006-031A",
        "EPOCH": "2025-11-30T05:07:40.841760",
        "MEAN_MOTION": 14.6447583,
        "ECCENTRICITY": 0.0014245,
        "INCLINATION": 97.8266,
        "RA_OF_ASC_NODE": 163.2969,
        "ARG_OF_PERICENTER": 350.3877,
        "MEAN_ANOMALY": 98.8671,
        "EPHEMERIS_TYPE": 0,
        "CLASSIFICATION_TYPE": "U",
        "NORAD_CAT_ID": 29268,
        "ELEMENT_SET_NO": 999,
        "REV_AT_EPOCH": 3235,
        "BSTAR": 9.229e-05,
        "MEAN_MOTION_DOT": 4.44e-06,
        "MEAN_MOTION_DDOT": 0,
        "norad_id": 29268,
        "name": "ARIRANG-2 (KOMPSAT-2)",
        "group": "resource",
        "longitude_deg": NaN,
        "latitude_deg": NaN,
        "alt_km": NaN,
        "orbit_class": "HEO",
        "timestamp": "2025-11-30T09:33:02.501401+00:00"
      },
      "geometry": {
        "type": "Point",
        "coordinates": [
          NaN,
          NaN
        ]
      }
    }
  ]
}